{"fetched_at":"2026-07-06T08:47:19.709Z","source":"https://celestrak.org/NORAD/elements/gp.php?NAME=SENTINEL&FORMAT=JSON","constellation":"sentinel-5p","records":[{"OBJECT_NAME":"SENTINEL-5P","OBJECT_ID":"2017-064A","EPOCH":"2026-07-05T05:54:38.492640","CLASSIFICATION_TYPE":"U","MEAN_MOTION":14.19522229,"ECCENTRICITY":0.0001092,"INCLINATION":98.7928,"RA_OF_ASC_NODE":128.2493,"ARG_OF_PERICENTER":91.972,"MEAN_ANOMALY":268.1581,"EPHEMERIS_TYPE":0,"NORAD_CAT_ID":42969,"ELEMENT_SET_NO":999,"REV_AT_EPOCH":45212,"BSTAR":0.000061548,"MEAN_MOTION_DOT":8.5e-7,"MEAN_MOTION_DDOT":0}]}
