SENTINEL-5P             
1 42969U 17064A   26186.24627886  .00000085  00000+0  61548-4 0  9994
2 42969  98.7928 128.2493 0001092  91.9720 268.1581 14.19522229452126
